{"type": "FeatureCollection", "features": [ {"type": "Feature", "properties": {"norad_id": 66830, "name": "STARLINK-35881", "group": "last-30-days", "lat": -63.24842341376125, "lon": 112.82267935969352, "alt_km": 413.34055830498073, "timestamp": "2025-12-27T02:10:14.908049+00:00", "meta": {"OBJECT_NAME": "STARLINK-35881", "OBJECT_ID": "2025-280K", "EPOCH": "2025-12-26T20:17:41.044416", "MEAN_MOTION": 15.52582594, "ECCENTRICITY": 0.0003335, "INCLINATION": 70.0006, "RA_OF_ASC_NODE": 159.7584, "ARG_OF_PERICENTER": 278.5102, "MEAN_ANOMALY": 81.5706, "EPHEMERIS_TYPE": 0, "CLASSIFICATION_TYPE": "U", "NORAD_CAT_ID": 66830, "ELEMENT_SET_NO": 999, "REV_AT_EPOCH": 512, "BSTAR": 0.0021463, "MEAN_MOTION_DOT": 0.00134437, "MEAN_MOTION_DDOT": 0}, "tle": {"line1": "1 66830U 25280K   25360.84561394  .00134437  00000+0  21463-2 0  9995", "line2": "2 66830  70.0006 159.7584 0003335 278.5102  81.5706 15.52582594  5127"}}, "geometry": {"type": "Point", "coordinates": [112.82267935969352, -63.24842341376125]}}, {"type": "Feature", "properties": {"norad_id": 66831, "name": "STARLINK-35788", "group": "last-30-days", "lat": -61.963712269529324, "lon": 115.93282580521934, "alt_km": 413.30318177486697, "timestamp": "2025-12-27T02:10:14.908063+00:00", "meta": {"OBJECT_NAME": "STARLINK-35788", "OBJECT_ID": "2025-280L", "EPOCH": "2025-12-26T18:44:24.653760", "MEAN_MOTION": 15.52570795, "ECCENTRICITY": 0.0003468, "INCLINATION": 70.0003, "RA_OF_ASC_NODE": 159.9347, "ARG_OF_PERICENTER": 275.1846, "MEAN_ANOMALY": 84.8945, "EPHEMERIS_TYPE": 0, "CLASSIFICATION_TYPE": "U", "NORAD_CAT_ID": 66831, "ELEMENT_SET_NO": 999, "REV_AT_EPOCH": 511, "BSTAR": 0.0018291, "MEAN_MOTION_DOT": 0.00114205, "MEAN_MOTION_DDOT": 0}, "tle": {"line1": "1 66831U 25280L   25360.78084090  .00114205  00000+0  18291-2 0  9998", "line2": "2 66831  70.0003 159.9347 0003468 275.1846  84.8945 15.52570795  5119"}}, "geometry": {"type": "Point", "coordinates": [115.93282580521934, -61.963712269529324]}}, {"type": "Feature", "properties": {"norad_id": 66832, "name": "STARLINK-35768", "group": "last-30-days", "lat": -60.64563357689545, "lon": 118.72306303486421, "alt_km": 413.4434754001213, "timestamp": "2025-12-27T02:10:14.908075+00:00", "meta": {"OBJECT_NAME": "STARLINK-35768", "OBJECT_ID": "2025-280M", "EPOCH": "2025-12-26T18:43:55.111008", "MEAN_MOTION": 15.5255582, "ECCENTRICITY": 0.0003367, "INCLINATION": 70.0005, "RA_OF_ASC_NODE": 159.9322, "ARG_OF_PERICENTER": 277.6728, "MEAN_ANOMALY": 82.4076, "EPHEMERIS_TYPE": 0, "CLASSIFICATION_TYPE": "U", "NORAD_CAT_ID": 66832, "ELEMENT_SET_NO": 999, "REV_AT_EPOCH": 511, "BSTAR": 0.001346, "MEAN_MOTION_DOT": 0.00083626, "MEAN_MOTION_DDOT": 0}, "tle": {"line1": "1 66832U 25280M   25360.78049897  .00083626  00000+0  13460-2 0  9990", "line2": "2 66832  70.0005 159.9322 0003367 277.6728  82.4076 15.52555820  5110"}}, "geometry": {"type": "Point", "coordinates": [118.72306303486421, -60.64563357689545]}}, {"type": "Feature", "properties": {"norad_id": 66833, "name": "STARLINK-35858", "group": "last-30-days", "lat": -59.20051265604386, "lon": 121.41903211716418, "alt_km": 413.3070298441007, "timestamp": "2025-12-27T02:10:14.908085+00:00", "meta": {"OBJECT_NAME": "STARLINK-35858", "OBJECT_ID": "2025-280N", "EPOCH": "2025-12-26T08:00:01.000224", "MEAN_MOTION": 15.52414998, "ECCENTRICITY": 0.0003363, "INCLINATION": 70.0002, "RA_OF_ASC_NODE": 161.1545, "ARG_OF_PERICENTER": 269.1139, "MEAN_ANOMALY": 114.4876, "EPHEMERIS_TYPE": 0, "CLASSIFICATION_TYPE": "U", "NORAD_CAT_ID": 66833, "ELEMENT_SET_NO": 999, "REV_AT_EPOCH": 508, "BSTAR": 0.0029835, "MEAN_MOTION_DOT": 0.00187064, "MEAN_MOTION_DDOT": 0}, "tle": {"line1": "1 66833U 25280N   25360.33334491  .00187064  00000+0  29835-2 0  9993", "line2": "2 66833  70.0002 161.1545 0003363 269.1139 114.4876 15.52414998  5088"}}, "geometry": {"type": "Point", "coordinates": [121.41903211716418, -59.20051265604386]}}, {"type": "Feature", "properties": {"norad_id": 66834, "name": "STARLINK-35840", "group": "last-30-days", "lat": -57.79588736311659, "lon": 123.7491936227541, "alt_km": 413.47925974490863, "timestamp": "2025-12-27T02:10:14.908095+00:00", "meta": {"OBJECT_NAME": "STARLINK-35840", "OBJECT_ID": "2025-280P", "EPOCH": "2025-12-26T18:42:55.780992", "MEAN_MOTION": 15.5255957, "ECCENTRICITY": 0.0003342, "INCLINATION": 70.0006, "RA_OF_ASC_NODE": 159.9293, "ARG_OF_PERICENTER": 274.8036, "MEAN_ANOMALY": 85.2769, "EPHEMERIS_TYPE": 0, "CLASSIFICATION_TYPE": "U", "NORAD_CAT_ID": 66834, "ELEMENT_SET_NO": 999, "REV_AT_EPOCH": 511, "BSTAR": 0.0013766, "MEAN_MOTION_DOT": 0.00085565, "MEAN_MOTION_DDOT": 0}, "tle": {"line1": "1 66834U 25280P   25360.77981228  .00085565  00000+0  13766-2 0  9997", "line2": "2 66834  70.0006 159.9293 0003342 274.8036  85.2769 15.52559570  5110"}}, "geometry": {"type": "Point", "coordinates": [123.7491936227541, -57.79588736311659]}}, {"type": "Feature", "properties": {"norad_id": 66835, "name": "STARLINK-35890", "group": "last-30-days", "lat": -56.32147459869822, "lon": 125.94488055631976, "alt_km": 413.55594530795224, "timestamp": "2025-12-27T02:10:14.908108+00:00", "meta": {"OBJECT_NAME": "STARLINK-35890", "OBJECT_ID": "2025-280Q", "EPOCH": "2025-12-26T18:42:26.212320", "MEAN_MOTION": 15.52550895, "ECCENTRICITY": 0.0003392, "INCLINATION": 70.0007, "RA_OF_ASC_NODE": 159.928, "ARG_OF_PERICENTER": 271.2438, "MEAN_ANOMALY": 88.836, "EPHEMERIS_TYPE": 0, "CLASSIFICATION_TYPE": "U", "NORAD_CAT_ID": 66835, "ELEMENT_SET_NO": 999, "REV_AT_EPOCH": 511, "BSTAR": 0.0011939, "MEAN_MOTION_DOT": 0.00074053, "MEAN_MOTION_DDOT": 0}, "tle": {"line1": "1 66835U 25280Q   25360.77947005  .00074053  00000+0  11939-2 0  9993", "line2": "2 66835  70.0007 159.9280 0003392 271.2438  88.8360 15.52550895  5117"}}, "geometry": {"type": "Point", "coordinates": [125.94488055631976, -56.32147459869822]}}, {"type": "Feature", "properties": {"norad_id": 66836, "name": "STARLINK-35838", "group": "last-30-days", "lat": -54.773481291631946, "lon": 128.0231317167285, "alt_km": 413.36165082574917, "timestamp": "2025-12-27T02:10:14.908136+00:00", "meta": {"OBJECT_NAME": "STARLINK-35838", "OBJECT_ID": "2025-280R", "EPOCH": "2025-12-26T17:09:09.872640", "MEAN_MOTION": 15.52556408, "ECCENTRICITY": 0.0003499, "INCLINATION": 70.0008, "RA_OF_ASC_NODE": 160.103, "ARG_OF_PERICENTER": 273.1058, "MEAN_ANOMALY": 86.9728, "EPHEMERIS_TYPE": 0, "CLASSIFICATION_TYPE": "U", "NORAD_CAT_ID": 66836, "ELEMENT_SET_NO": 999, "REV_AT_EPOCH": 510, "BSTAR": 0.0015917, "MEAN_MOTION_DOT": 0.00099122, "MEAN_MOTION_DDOT": 0}, "tle": {"line1": "1 66836U 25280R   25360.71469760  .00099122  00000+0  15917-2 0  9999", "line2": "2 66836  70.0008 160.1030 0003499 273.1058  86.9728 15.52556408  5105"}}, "geometry": {"type": "Point", "coordinates": [128.0231317167285, -54.773481291631946]}}, {"type": "Feature", "properties": {"norad_id": 66837, "name": "STARLINK-35729", "group": "last-30-days", "lat": -52.291654118565134, "lon": 130.96515623493536, "alt_km": 411.36847245060017, "timestamp": "2025-12-27T02:10:14.908147+00:00", "meta": {"OBJECT_NAME": "STARLINK-35729", "OBJECT_ID": "2025-280S", "EPOCH": "2025-12-26T12:30:17.392032", "MEAN_MOTION": 15.52817833, "ECCENTRICITY": 0.0003286, "INCLINATION": 70.0008, "RA_OF_ASC_NODE": 160.6309, "ARG_OF_PERICENTER": 288.0168, "MEAN_ANOMALY": 72.066, "EPHEMERIS_TYPE": 0, "CLASSIFICATION_TYPE": "U", "NORAD_CAT_ID": 66837, "ELEMENT_SET_NO": 999, "REV_AT_EPOCH": 507, "BSTAR": 0.0063216, "MEAN_MOTION_DOT": 0.0041412, "MEAN_MOTION_DDOT": 0}, "tle": {"line1": "1 66837U 25280S   25360.52103463  .00414120  00000+0  63216-2 0  9998", "line2": "2 66837  70.0008 160.6309 0003286 288.0168  72.0660 15.52817833  5070"}}, "geometry": {"type": "Point", "coordinates": [130.96515623493536, -52.291654118565134]}}, {"type": "Feature", "properties": {"norad_id": 66838, "name": "STARLINK-35886", "group": "last-30-days", "lat": -50.058146194321495, "lon": 133.2849917712967, "alt_km": 413.5542675689803, "timestamp": "2025-12-27T02:10:14.908160+00:00", "meta": {"OBJECT_NAME": "STARLINK-35886", "OBJECT_ID": "2025-280T", "EPOCH": "2025-12-26T17:07:40.939392", "MEAN_MOTION": 15.52541017, "ECCENTRICITY": 0.000342, "INCLINATION": 70.0009, "RA_OF_ASC_NODE": 160.0986, "ARG_OF_PERICENTER": 272.8203, "MEAN_ANOMALY": 87.2592, "EPHEMERIS_TYPE": 0, "CLASSIFICATION_TYPE": "U", "NORAD_CAT_ID": 66838, "ELEMENT_SET_NO": 999, "REV_AT_EPOCH": 510, "BSTAR": 0.0009115, "MEAN_MOTION_DOT": 0.00056353, "MEAN_MOTION_DDOT": 0}, "tle": {"line1": "1 66838U 25280T   25360.71366828  .00056353  00000+0  91150-3 0  9995", "line2": "2 66838  70.0009 160.0986 0003420 272.8203  87.2592 15.52541017  5102"}}, "geometry": {"type": "Point", "coordinates": [133.2849917712967, -50.058146194321495]}}, {"type": "Feature", "properties": {"norad_id": 66839, "name": "STARLINK-35717", "group": "last-30-days", "lat": -51.646780634326156, "lon": 131.66245985761705, "alt_km": 413.4196107157786, "timestamp": "2025-12-27T02:10:14.908170+00:00", "meta": {"OBJECT_NAME": "STARLINK-35717", "OBJECT_ID": "2025-280U", "EPOCH": "2025-12-26T17:08:10.574592", "MEAN_MOTION": 15.52552146, "ECCENTRICITY": 0.0003396, "INCLINATION": 70.0007, "RA_OF_ASC_NODE": 160.0996, "ARG_OF_PERICENTER": 276.4872, "MEAN_ANOMALY": 83.5928, "EPHEMERIS_TYPE": 0, "CLASSIFICATION_TYPE": "U", "NORAD_CAT_ID": 66839, "ELEMENT_SET_NO": 999, "REV_AT_EPOCH": 510, "BSTAR": 0.0012353, "MEAN_MOTION_DOT": 0.00076659, "MEAN_MOTION_DDOT": 0}, "tle": {"line1": "1 66839U 25280U   25360.71401128  .00076659  00000+0  12353-2 0  9997", "line2": "2 66839  70.0007 160.0996 0003396 276.4872  83.5928 15.52552146  5103"}}, "geometry": {"type": "Point", "coordinates": [131.66245985761705, -51.646780634326156]}}]}